EUTELSAT 8 WEST B       
1 40875U 15039B   26003.60193237 -.00000063  00000+0  00000+0 0  9992
2 40875   0.0634 354.6906 0004114 287.6538  29.5782  1.00271714 38008
EUTELSAT 9B             
1 41310U 16005A   26003.60531240  .00000064  00000+0  00000+0 0  9991
2 41310   0.0496  66.8161 0005004 214.4864  48.8155  1.00272215 36466
EUTELSAT 65 WEST A      
1 41382U 16014A   26003.51262245 -.00000273  00000+0  00000+0 0  9999
2 41382   0.0688 314.7294 0002549 326.8066 300.9307  1.00272923 35885
EUTELSAT 117 WEST B     
1 41589U 16038B   26003.00969049 -.00000006  00000+0  00000+0 0  9998
2 41589   0.0086 161.9795 0000358 259.6528 287.5128  1.00269813 35005
EUTELSAT 172B           
1 42741U 17029B   26003.06680418 -.00000001  00000+0  00000+0 0  9991
2 42741   0.0335 120.5629 0000256 122.2082  55.9546  1.00270752 32076
EUTELSAT 7C             
1 44334U 19034B   26003.53346881  .00000051  00000+0  00000+0 0  9998
2 44334   0.0751 179.7544 0003550  87.9634  34.4517  1.00270619  5184
EUTELSAT 5 WEST B       
1 44624U 19067A   26003.60253904 -.00000040  00000+0  00000+0 0  9996
2 44624   0.0741 327.2275 0003460 315.0304  32.8647  1.00270854 22787
EUTELSAT KONNECT        
1 45027U 20005B   26003.60496573  .00000052  00000+0  00000+0 0  9991
2 45027   0.0709  93.1014 0001764 184.1753  50.9181  1.00270298 22682
